$$SOE
2459580.500000000, A.D. 2022-Jan-01 00:00:00.0000, 2.484649155090294E+08, 2.525786200958562E+08, 5.542375265687451E+06,
2459587.500000000, A.D. 2022-Jan-08 00:00:00.0000, 2.409700038554173E+08, 2.608054427885093E+08, 5.108670625484347E+06,
2459594.500000000, A.D. 2022-Jan-15 00:00:00.0000, 2.332138889448979E+08, 2.687495349414892E+08, 4.669427054346353E+06,
2459601.500000000, A.D. 2022-Jan-22 00:00:00.0000, 2.252065505499918E+08, 2.764040945473486E+08, 4.225151842447355E+06,
2459608.500000000, A.D. 2022-Jan-29 00:00:00.0000, 2.169580426594915E+08, 2.837626272667233E+08, 3.776350147667572E+06,
2459615.500000000, A.D. 2022-Feb-05 00:00:00.0000, 2.084784863744744E+08, 2.908189390620248E+08, 3.323525064045563E+06,
2459622.500000000, A.D. 2022-Feb-12 00:00:00.0000, 1.997780655671475E+08, 2.975671280757484E+08, 2.867177423312694E+06,
2459629.500000000, A.D. 2022-Feb-19 00:00:00.0000, 1.908670239385586E+08, 3.040015781359082E+08, 2.407805642033115E+06,
2459636.500000000, A.D. 2022-Feb-26 00:00:00.0000, 1.817556621226599E+08, 3.101169531792400E+08, 1.945905673670053E+06,
2459643.500000000, A.D. 2022-Mar-05 00:00:00.0000, 1.724543349583898E+08, 3.159081919894849E+08, 1.481970998802230E+06,
2459650.500000000, A.D. 2022-Mar-12 00:00:00.0000, 1.629734491164093E+08, 3.213705031976543E+08, 1.016492625969008E+06,
2459657.500000000, A.D. 2022-Mar-19 00:00:00.0000, 1.533234611178177E+08, 3.264993605832788E+08, 5.499590971349329E+05,
2459664.500000000, A.D. 2022-Mar-26 00:00:00.0000, 1.435148757346829E+08, 3.312904986803386E+08, 8.285649353262782E+04,
2459671.500000000, A.D. 2022-Apr-02 00:00:00.0000, 1.335582448086126E+08, 3.357399086407001E+08, -3.843315704863071E+05,
2459678.500000000, A.D. 2022-Apr-09 00:00:00.0000, 1.234641667287628E+08, 3.398438343683779E+08, -8.511239916107357E+05,
2459685.500000000, A.D. 2022-Apr-16 00:00:00.0000, 1.132432868977636E+08, 3.435987695881383E+08, -1.317042240561813E+06,
2459692.500000000, A.D. 2022-Apr-23 00:00:00.0000, 1.029062978915625E+08, 3.470014569392986E+08, -1.781610240771383E+06,
2459699.500000000, A.D. 2022-Apr-30 00:00:00.0000, 9.246393741405027E+07, 3.500488868479220E+08, -2.244354075812519E+06,
2459706.500000000, A.D. 2022-May-07 00:00:00.0000, 8.192698707604733E+07, 3.527382942110012E+08, -2.704801968099728E+06,
2459713.500000000, A.D. 2022-May-14 00:00:00.0000, 7.130627336478800E+07, 3.550671559439273E+08, -3.162484409626946E+06,
2459720.500000000, A.D. 2022-May-21 00:00:00.0000, 6.061266874991139E+07, 3.570331901532137E+08, -3.616934198005632E+06,
2459727.500000000, A.D. 2022-May-28 00:00:00.0000, 4.985709242036811E+07, 3.586343559781172E+08, -4.067686413162380E+06,
2459734.500000000, A.D. 2022-Jun-04 00:00:00.0000, 3.905051090292849E+07, 3.598688537930775E+08, -4.514278386605814E+06,
2459741.500000000, A.D. 2022-Jun-11 00:00:00.0000, 2.820393868122477E+07, 3.607351257783848E+08, -4.956249677357867E+06,
2459748.500000000, A.D. 2022-Jun-18 00:00:00.0000, 1.732843882831984E+07, 3.612318568774689E+08, -5.393142058022946E+06,
2459755.500000000, A.D. 2022-Jun-25 00:00:00.0000, 6.435123656217975E+06, 3.613579761125999E+08, -5.824499517389491E+06,
2459762.500000000, A.D. 2022-Jul-02 00:00:00.0000, -4.464844510333954E+06, 3.611126581981492E+08, -6.249868298171997E+06,
2459769.500000000, A.D. 2022-Jul-09 00:00:00.0000, -1.536025207337578E+07, 3.604953256337999E+08, -6.668796992151812E+06,
2459776.500000000, A.D. 2022-Jul-16 00:00:00.0000, -2.623983249857593E+07, 3.595056523684829E+08, -7.080836600364894E+06,
2459783.500000000, A.D. 2022-Jul-23 00:00:00.0000, -3.709226647383846E+07, 3.581435691211656E+08, -7.485540352030754E+06,
2459790.500000000, A.D. 2022-Jul-30 00:00:00.0000, -4.790618383222217E+07, 3.564092670037017E+08, -7.882463564775631E+06,
2459797.500000000, A.D. 2022-Aug-06 00:00:00.0000, -5.867016367568761E+07, 3.543032000972431E+08, -8.271163823744357E+06,
2459804.500000000, A.D. 2022-Aug-13 00:00:00.0000, -6.937273355280171E+07, 3.518260897492151E+08, -8.651201181214482E+06,
2459811.500000000, A.D. 2022-Aug-20 00:00:00.0000, -8.000236928499348E+07, 3.489789300890758E+08, -9.022138275558025E+06,
2459818.500000000, A.D. 2022-Aug-27 00:00:00.0000, -9.054749540401013E+07, 3.457629940298228E+08, -9.383540435625419E+06,
2459825.500000000, A.D. 2022-Sep-03 00:00:00.0000, -1.009964859907256E+08, 3.421798396379547E+08, -9.734975802388623E+06,
2459832.500000000, A.D. 2022-Sep-10 00:00:00.0000, -1.113376658695872E+08, 3.382313168936453E+08, -1.007601547456630E+07,
2459839.500000000, A.D. 2022-Sep-17 00:00:00.0000, -1.215593121757784E+08, 3.339195748436644E+08, -1.040623368249150E+07,
2459846.500000000, A.D. 2022-Sep-24 00:00:00.0000, -1.316496562791280E+08, 3.292470691028385E+08, -1.072520800225876E+07,
2459853.500000000, A.D. 2022-Oct-01 00:00:00.0000, -1.415968858673086E+08, 3.242165696849281E+08, -1.103251963657242E+07,
2459860.500000000, A.D. 2022-Oct-08 00:00:00.0000, -1.513891468250968E+08, 3.188311696823159E+08, -1.132775375934805E+07,
2459867.500000000, A.D. 2022-Oct-15 00:00:00.0000, -1.610145458903300E+08, 3.130942959883218E+08, -1.161049974305454E+07,
2459874.500000000, A.D. 2022-Oct-22 00:00:00.0000, -1.704611563178008E+08, 3.070097203721814E+08, -1.188035120911831E+07,
2459881.500000000, A.D. 2022-Oct-29 00:00:00.0000, -1.797170241009799E+08, 3.005815682954687E+08, -1.213690634376408E+07,
2459888.500000000, A.D. 2022-Nov-05 00:00:00.0000, -1.887701727121723E+08, 2.938143281883057E+08, -1.237976844884901E+07,
2459895.500000000, A.D. 2022-Nov-12 00:00:00.0000, -1.976086083912091E+08, 2.867128624388962E+08, -1.260854644705045E+07,
2459902.500000000, A.D. 2022-Nov-19 00:00:00.0000, -2.062203267628975E+08, 2.792824191228719E+08, -1.282285535615166E+07,
2459909.500000000, A.D. 2022-Nov-26 00:00:00.0000, -2.145933205844888E+08, 2.715286440465649E+08, -1.302231679091631E+07,
2459916.500000000, A.D. 2022-Dec-03 00:00:00.0000, -2.227155885247898E+08, 2.634575930592518E+08, -1.320655951073895E+07,
2459923.500000000, A.D. 2022-Dec-10 00:00:00.0000, -2.305751449998190E+08, 2.550757446147202E+08, -1.337522001783429E+07,
2459930.500000000, A.D. 2022-Dec-17 00:00:00.0000, -2.381600311128652E+08, 2.463900125127128E+08, -1.352794321237363E+07,
2459937.500000000, A.D. 2022-Dec-24 00:00:00.0000, -2.454583266639632E+08, 2.374077587028531E+08, -1.366438312199531E+07,
2459944.500000000, A.D. 2022-Dec-31 00:00:00.0000, -2.524581629470300E+08, 2.281368061988766E+08, -1.378420373157114E+07,
2459951.500000000, A.D. 2023-Jan-07 00:00:00.0000, -2.591477362897199E+08, 2.185854529967984E+08, -1.388707984759553E+07,
2459958.500000000, A.D. 2023-Jan-14 00:00:00.0000, -2.655153243847246E+08, 2.087624874173535E+08, -1.397269777837117E+07,
2459965.500000000, A.D. 2023-Jan-21 00:00:00.0000, -2.715493061388926E+08, 1.986772016187993E+08, -1.404075603280436E+07,
2459972.500000000, A.D. 2023-Jan-28 00:00:00.0000, -2.772381814429238E+08, 1.883394029886621E+08, -1.409096639090612E+07,
2459979.500000000, A.D. 2023-Feb-04 00:00:00.0000, -2.825705911424084E+08, 1.777594263264832E+08, -1.412305507920218E+07,
2459986.500000000, A.D. 2023-Feb-11 00:00:00.0000, -2.875353390840337E+08, 1.669481465044273E+08, -1.413676390394676E+07,
2459993.500000000, A.D. 2023-Feb-18 00:00:00.0000, -2.921214163679048E+08, 1.559169906546599E+08, -1.413185140462259E+07,
2460000.500000000, A.D. 2023-Feb-25 00:00:00.0000, -2.963180275990285E+08, 1.446779495749847E+08, -1.410809406419309E+07,
2460007.500000000, A.D. 2023-Mar-04 00:00:00.0000, -3.001146190842262E+08, 1.332435882061580E+08, -1.406528758215468E+07,
2460014.500000000, A.D. 2023-Mar-11 00:00:00.0000, -3.035009089878052E+08, 1.216270549988696E+08, -1.400324821071552E+07,
2460021.500000000, A.D. 2023-Mar-18 00:00:00.0000, -3.064669194340407E+08, 1.098420899230002E+08, -1.392181415998212E+07,
2460028.500000000, A.D. 2023-Mar-25 00:00:00.0000, -3.090030103790300E+08, 9.790303086106686E+07, -1.382084709200736E+07,
2460035.500000000, A.D. 2023-Apr-01 00:00:00.0000, -3.110999148390755E+08, 8.582481855671966E+07, -1.370023370737141E+07,
2460042.500000000, A.D. 2023-Apr-08 00:00:00.0000, -3.127487760835588E+08, 7.362300110797194E+07, -1.355988726379658E+07,
2460049.500000000, A.D. 2023-Apr-15 00:00:00.0000, -3.139411891027064E+08, 6.131373665014423E+07, -1.339974889840123E+07,
2460056.500000000, A.D. 2023-Apr-22 00:00:00.0000, -3.146692444931529E+08, 4.891379091871269E+07, -1.321978916394657E+07,
2460063.500000000, A.D. 2023-Apr-29 00:00:00.0000, -3.149255719417892E+08, 3.644053167847738E+07, -1.302000983790006E+07,
2460070.500000000, A.D. 2023-May-06 00:00:00.0000, -3.147033849467502E+08, 2.391192151744401E+07, -1.280044568690371E+07,
2460077.500000000, A.D. 2023-May-13 00:00:00.0000, -3.139965276066669E+08, 1.134650782170681E+07, -1.256116616000721E+07,
2460084.500000000, A.D. 2023-May-20 00:00:00.0000, -3.127995230611231E+08, -1.236590845015655E+06, -1.230227706027684E+07,
2460091.500000000, A.D. 2023-May-27 00:00:00.0000, -3.111076231541948E+08, -1.381770227254142E+07, -1.202392219882880E+07,
2460098.500000000, A.D. 2023-Jun-03 00:00:00.0000, -3.089168589834610E+08, -2.637662231207874E+07, -1.172628501632708E+07,
2460105.500000000, A.D. 2023-Jun-10 00:00:00.0000, -3.062240919980533E+08, -3.889264106471843E+07, -1.140959015810767E+07,
2460112.500000000, A.D. 2023-Jun-17 00:00:00.0000, -3.030270652139131E+08, -5.134457388209422E+07, -1.107410500031701E+07,
2460119.500000000, A.D. 2023-Jun-24 00:00:00.0000, -2.993244538425822E+08, -6.371079736251763E+07, -1.072014113539808E+07,
2460126.500000000, A.D. 2023-Jul-01 00:00:00.0000, -2.951159146437289E+08, -7.596928971666215E+07, -1.034805575306053E+07,
2460133.500000000, A.D. 2023-Jul-08 00:00:00.0000, -2.904021351834338E+08, -8.809767484629066E+07, -9.958252673728045E+06,
2460140.500000000, A.D. 2023-Jul-15 00:00:00.0000, -2.851848837373309E+08, -1.000732730923357E+08, -9.551183125216790E+06,
2460147.500000000, A.D. 2023-Jul-22 00:00:00.0000, -2.794670557445029E+08, -1.118731597628717E+08, -9.127346646484442E+06,
$$EOE